NORAD_CAT_ID,OBJECT_NAME,OBJECT_TYPE,EPOCH,MEAN_MOTION,ECCENTRICITY,INCLINATION,RA_OF_ASC_NODE,ARG_OF_PERICENTER,MEAN_ANOMALY,BSTAR,MEAN_MOTION_DOT,MEAN_MOTION_DDOT,TLE_LINE0,TLE_LINE1,TLE_LINE2,SEMIMAJOR_AXIS,PERIOD,APOGEE,PERIGEE,DECAYED
56458.0,STARLINK-6050,PAYLOAD,2024-06-21 14:38:32,14.98330752,0.0003022,70.0003,283.0932,271.144,88.9373,4.5821e-05,4.54e-06,0.0,0 STARLINK-6050,1 56458U 23064L   24173.61010401  .00000454  00000-0  45821-4 0  9990,2 56458  70.0003 283.0932 0003022 271.1440  88.9373 14.98330752 61460,6950.191,96.107,574.156,569.955,0.0
56458.0,STARLINK-6050,PAYLOAD,2024-06-21 17:50:49,14.98331852,0.0003014,70.0003,282.7566,271.0719,89.0095,5.6038e-05,5.76e-06,0.0,0 STARLINK-6050,1 56458U 23064L   24173.74362287  .00000576  00000-0  56038-4 0  9993,2 56458  70.0003 282.7566 0003014 271.0719  89.0095 14.98331852 61845,6950.187,96.107,574.147,569.957,0.0
56458.0,STARLINK-6050,PAYLOAD,2024-06-22 11:28:17,14.98330082,0.0002964,70.0004,280.9051,268.9999,91.082,-2.1273e-05,-3.47e-06,0.0,0 STARLINK-6050,1 56458U 23064L   24174.47798555 -.00000347  00000-0 -21273-4 0  9996,2 56458  70.0004 280.9051 0002964 268.9999  91.0820 14.98330082 61598,6950.193,96.107,574.118,569.998,0.0
56458.0,STARLINK-6050,PAYLOAD,2024-06-22 16:16:42,14.98329673,0.0002979,70.0004,280.4002,269.3498,90.732,-2.5075e-05,-3.92e-06,0.0,0 STARLINK-6050,1 56458U 23064L   24174.67826596 -.00000392  00000-0 -25075-4 0  9999,2 56458  70.0004 280.4002 0002979 269.3498  90.7320 14.98329673 61623,6950.194,96.107,574.129,569.988,0.0
56458.0,STARLINK-6050,PAYLOAD,2024-06-23 13:06:26,14.98332555,0.0003027,70.0005,278.2122,263.7663,96.3152,1.1974e-05,5e-07,0.0,0 STARLINK-6050,1 56458U 23064L   24175.54614141  .00000050  00000-0  11974-4 0  9999,2 56458  70.0005 278.2122 0003027 263.7663  96.3152 14.98332555 62112,6950.185,96.107,574.154,569.946,0.0
56458.0,STARLINK-6050,PAYLOAD,2024-06-23 16:18:42,14.98333691,0.0003012,70.0004,277.8755,263.5894,96.4922,2.4567e-05,2e-06,0.0,0 STARLINK-6050,1 56458U 23064L   24175.67966004  .00000200  00000-0  24567-4 0  9990,2 56458  70.0004 277.8755 0003012 263.5894  96.4922 14.98333691 61775,6950.181,96.107,574.14,569.953,0.0
56458.0,STARLINK-6050,PAYLOAD,2024-06-24 13:08:27,14.98331723,0.0003147,70.0001,275.6869,267.124,92.9559,3.8349e-05,3.65e-06,0.0,0 STARLINK-6050,1 56458U 23064L   24176.54753917  .00000365  00000-0  38349-4 0  9999,2 56458  70.0001 275.6869 0003147 267.1240  92.9559 14.98331723 62264,6950.188,96.107,574.24,569.865,0.0
56458.0,STARLINK-6050,PAYLOAD,2024-06-24 14:44:35,14.98332273,0.0003141,70.0001,275.5186,267.3134,92.7666,4.3816e-05,4.3e-06,0.0,0 STARLINK-6050,1 56458U 23064L   24176.61429856  .00000430  00000-0  43816-4 0  9997,2 56458  70.0001 275.5186 0003141 267.3134  92.7666 14.98332273 61912,6950.186,96.107,574.234,569.868,0.0
56458.0,STARLINK-6050,PAYLOAD,2024-06-24 16:20:43,14.98332919,0.0003138,70.0001,275.3504,267.163,92.917,5.0212e-05,5.06e-06,0.0,0 STARLINK-6050,1 56458U 23064L   24176.68105783  .00000506  00000-0  50212-4 0  9996,2 56458  70.0001 275.3504 0003138 267.1630  92.9170 14.98332919 61929,6950.184,96.107,574.23,569.868,0.0
56458.0,STARLINK-6050,PAYLOAD,2024-06-25 13:10:28,14.98328813,0.0003057,70.0003,273.1621,266.6317,93.4492,-4.1963e-05,-5.94e-06,0.0,0 STARLINK-6050,1 56458U 23064L   24177.54894283 -.00000594  00000-0 -41963-4 0  9994,2 56458  70.0003 273.1621 0003057 266.6317  93.4492 14.98328813 62419,6950.197,96.107,574.186,569.937,0.0
56458.0,STARLINK-6050,PAYLOAD,2024-06-25 14:46:36,14.98329751,0.0003046,70.0003,272.9939,266.5775,93.5036,-3.0007e-05,-4.51e-06,0.0,0 STARLINK-6050,1 56458U 23064L   24177.61570189 -.00000451  00000-0 -30007-4 0  9997,2 56458  70.0003 272.9939 0003046 266.5775  93.5036 14.98329751 62061,6950.194,96.107,574.176,569.942,0.0
56458.0,STARLINK-6050,PAYLOAD,2024-06-25 16:22:44,14.98330613,0.0003043,70.0004,272.8258,266.6761,93.405,-1.9357e-05,-3.24e-06,0.0,0 STARLINK-6050,1 56458U 23064L   24177.68246104 -.00000324  00000-0 -19357-4 0  9995,2 56458  70.0004 272.8258 0003043 266.6761  93.4050 14.98330613 62073,6950.191,96.107,574.171,569.941,0.0
56458.0,STARLINK-6050,PAYLOAD,2024-06-26 11:36:20,14.98336785,0.0003021,70.0006,270.8063,263.8571,96.2244,4.9654e-05,5e-06,0.0,0 STARLINK-6050,1 56458U 23064L   24178.48357290  .00000500  00000-0  49654-4 0  9990,2 56458  70.0006 270.8063 0003021 263.8571  96.2244 14.98336785 62556,6950.172,96.107,574.137,569.937,0.0
56458.0,STARLINK-6050,PAYLOAD,2024-06-27 13:14:29,14.98331147,0.0003348,69.9998,268.1134,266.2022,93.8754,1.721e-05,1.12e-06,0.0,0 STARLINK-6050,1 56458U 23064L   24179.55173530  .00000112  00000-0  17210-4 0  9994,2 56458  69.9998 268.1134 0003348 266.2022  93.8754 14.98331147 62716,6950.189,96.107,574.381,569.727,0.0
56458.0,STARLINK-6050,PAYLOAD,2024-06-27 16:26:46,14.98331663,0.0003387,69.9996,267.7766,267.659,92.4182,1.8672e-05,1.3e-06,0.0,0 STARLINK-6050,1 56458U 23064L   24179.68525483  .00000130  00000-0  18672-4 0  9999,2 56458  69.9996 267.7766 0003387 267.6590  92.4182 14.98331663 62373,6950.188,96.107,574.407,569.699,0.0
56458.0,STARLINK-6050,PAYLOAD,2024-06-28 13:16:30,14.98333513,0.0003125,70.0001,265.5874,267.182,92.8981,-1.7715e-05,-3.04e-06,0.0,0 STARLINK-6050,1 56458U 23064L   24180.55313451 -.00000304  00000-0 -17715-4 0  9999,2 56458  70.0001 265.5874 0003125 267.1820  92.8981 14.98333513 62861,6950.182,96.107,574.219,569.875,0.0
56458.0,STARLINK-6050,PAYLOAD,2024-06-28 14:52:38,14.98335595,0.0003073,70.0002,265.4191,268.6743,91.4064,4.3816e-06,-4.1e-07,0.0,0 STARLINK-6050,1 56458U 23064L   24180.61989249 -.00000041  00000-0  43816-5 0  9999,2 56458  70.0002 265.4191 0003073 268.6743  91.4064 14.98335595 62516,6950.176,96.107,574.176,569.905,0.0
56458.0,STARLINK-6050,PAYLOAD,2024-06-29 13:18:32,14.98322012,0.0003114,69.9996,263.064,269.472,90.6083,-6.6498e-05,-8.86e-06,0.0,0 STARLINK-6050,1 56458U 23064L   24181.55454426 -.00000886  00000-0 -66498-4 0  9995,2 56458  69.9996 263.0640 0003114 269.4720  90.6083 14.98322012 63016,6950.218,96.108,574.247,569.918,0.0
56458.0,STARLINK-6050,PAYLOAD,2024-06-29 14:54:40,14.98319205,0.0003195,69.9999,262.8963,271.9569,88.1224,-4.1461e-05,-5.88e-06,0.0,0 STARLINK-6050,1 56458U 23064L   24181.62130618 -.00000588  00000-0 -41461-4 0  9999,2 56458  69.9999 262.8963 0003195 271.9569  88.1224 14.98319205 62661,6950.226,96.108,574.312,569.871,0.0
56458.0,STARLINK-6050,PAYLOAD,2024-06-30 11:44:25,14.9833201,0.0003265,69.999,260.7051,269.8434,90.2351,-1.8676e-06,-1.15e-06,0.0,0 STARLINK-6050,1 56458U 23064L   24182.48917969 -.00000115  00000-0 -18676-5 0  9995,2 56458  69.9990 260.7051 0003265 269.8434  90.2351 14.98332010 63151,6950.187,96.107,574.321,569.782,0.0
56458.0,STARLINK-6050,PAYLOAD,2024-06-30 13:20:33,14.98330931,0.000327,69.9991,260.5367,269.6873,90.3911,-9.9348e-06,-2.12e-06,0.0,0 STARLINK-6050,1 56458U 23064L   24182.55594060 -.00000212  00000-0 -99348-5 0  9999,2 56458  69.9991 260.5367 0003270 269.6873  90.3911 14.98330931 62805,6950.19,96.107,574.328,569.782,0.0
56458.0,STARLINK-6050,PAYLOAD,2024-06-30 14:56:41,14.98331576,0.0003261,69.9992,260.3685,269.7007,90.3779,-6.7161e-07,-1.01e-06,0.0,0 STARLINK-6050,1 56458U 23064L   24182.62269995 -.00000101  00000-0 -67161-6 0  9999,2 56458  69.9992 260.3685 0003261 269.7007  90.3779 14.98331576 62816,6950.188,96.107,574.319,569.787,0.0
56458.0,STARLINK-6050,PAYLOAD,2024-07-01 13:22:33,14.98329117,0.0003227,69.9992,258.0126,269.1288,90.9502,0.00018225,2.082e-05,0.0,0 STARLINK-6050,1 56458U 23064L   24183.55733746  .00002082  00000-0  18225-3 0  9994,2 56458  69.9992 258.0126 0003227 269.1288  90.9502 14.98329117 63311,6950.196,96.107,574.303,569.818,0.0
56458.0,STARLINK-6050,PAYLOAD,2024-07-01 14:58:41,14.98331021,0.0003225,69.9992,257.8443,269.0647,91.0142,0.00017222,1.963e-05,0.0,0 STARLINK-6050,1 56458U 23064L   24183.62409647  .00001963  00000-0  17222-3 0  9995,2 56458  69.9992 257.8443 0003225 269.0647  91.0142 14.98331021 62965,6950.19,96.107,574.296,569.813,0.0
56458.0,STARLINK-6050,PAYLOAD,2024-07-02 05:23:52,14.98343464,0.0003489,69.9983,256.3291,268.8754,91.2005,0.00053443,6.292e-05,0.0,0 STARLINK-6050,1 56458U 23064L   24184.22491260  .00006292  00000-0  53443-3 0  9999,2 56458  69.9983 256.3291 0003489 268.8754  91.2005 14.98343464 63413,6950.151,96.106,574.441,569.591,0.0
56458.0,STARLINK-6050,PAYLOAD,2024-07-02 13:24:35,14.98322951,0.0003377,69.9983,255.4875,268.5409,91.5363,-0.00013484,-1.701e-05,0.0,0 STARLINK-6050,1 56458U 23064L   24184.55874059 -.00001701  00000-0 -13484-3 0  9999,2 56458  69.9983 255.4875 0003377 268.5409  91.5363 14.98322951 63464,6950.215,96.107,574.427,569.733,0.0
56458.0,STARLINK-6050,PAYLOAD,2024-07-02 15:00:43,14.98322435,0.0003369,69.9984,255.3192,268.3008,91.7765,-0.00013916,-1.753e-05,0.0,0 STARLINK-6050,1 56458U 23064L   24184.62550114 -.00001753  00000-0 -13916-3 0  9997,2 56458  69.9984 255.3192 0003369 268.3008  91.7765 14.98322435 63117,6950.216,96.107,574.423,569.74,0.0
56458.0,STARLINK-6050,PAYLOAD,2024-07-03 13:26:35,14.98329294,0.000343,69.9981,252.9619,270.2902,89.7864,-8.0399e-05,-1.052e-05,0.0,0 STARLINK-6050,1 56458U 23064L   24185.56013711 -.00001052  00000-0 -80399-4 0  9990,2 56458  69.9981 252.9619 0003430 270.2902  89.7864 14.98329294 63617,6950.195,96.107,574.444,569.676,0.0
56458.0,STARLINK-6050,PAYLOAD,2024-07-03 21:27:16,14.98331452,0.0003268,69.9987,252.1205,271.1348,88.9436,-0.00010312,-1.323e-05,0.0,0 STARLINK-6050,1 56458U 23064L   24185.89393677 -.00001323  00000-0 -10312-3 0  9996,2 56458  69.9987 252.1205 0003268 271.1348  88.9436 14.98331452 63300,6950.188,96.107,574.325,569.782,0.0
56458.0,STARLINK-6050,PAYLOAD,2024-07-04 13:28:36,14.98331434,0.0003323,69.9988,250.4374,267.5315,92.5464,-2.259e-05,-3.63e-06,0.0,0 STARLINK-6050,1 56458U 23064L   24186.56153161 -.00000363  00000-0 -22590-4 0  9998,2 56458  69.9988 250.4374 0003323 267.5315  92.5464 14.98331434 63766,6950.188,96.107,574.363,569.744,0.0
